{
  "type": "FeatureCollection",
  "features": [
    {
      "type": "Feature",
      "properties": {
        "norad_id": 35830,
        "name": "COSMOS 2251 DEB",
        "group": "cosmos-2251-debris",
        "lat": 22.272787739794946,
        "lon": 96.67101662261783,
        "alt_km": 820.913276647153,
        "timestamp": "2025-12-03T08:58:46.399718+00:00",
        "meta_object_name": "COSMOS 2251 DEB",
        "meta_object_id": "1993-036ATC",
        "meta_epoch": "2025-12-01T03:57:40.475520",
        "meta_mean_motion": 14.2387799,
        "meta_eccentricity": 0.01234559,
        "meta_inclination": 73.8619,
        "meta_ra_of_asc_node": 287.4996,
        "meta_arg_of_pericenter": 257.8622,
        "meta_mean_anomaly": 100.8671,
        "meta_ephemeris_type": 0,
        "meta_classification_type": "U",
        "meta_norad_cat_id": 35830,
        "meta_element_set_no": 999,
        "meta_rev_at_epoch": 61099,
        "meta_bstar": 0.00092751736,
        "meta_mean_motion_dot": 2.272e-05,
        "meta_mean_motion_ddot": 0,
        "tle_line1": "1 35830U 93036ATC 25335.16505180  .00002272  00000+0  92752-3 0  9994",
        "tle_line2": "2 35830  73.8619 287.4996 0123455 257.8622 100.8671 14.23877990610990"
      },
      "geometry": {
        "type": "Point",
        "coordinates": [
          96.67101662261783,
          22.272787739794946
        ]
      }
    },
    {
      "type": "Feature",
      "properties": {
        "norad_id": 35834,
        "name": "COSMOS 2251 DEB",
        "group": "cosmos-2251-debris",
        "lat": 4.800096529285668,
        "lon": -37.403678928239195,
        "alt_km": 888.1395795058916,
        "timestamp": "2025-12-03T08:58:46.399728+00:00",
        "meta_object_name": "COSMOS 2251 DEB",
        "meta_object_id": "1993-036ATG",
        "meta_epoch": "2025-12-01T16:59:11.672736",
        "meta_mean_motion": 14.12964835,
        "meta_eccentricity": 0.01090429,
        "meta_inclination": 73.9309,
        "meta_ra_of_asc_node": 324.1737,
        "meta_arg_of_pericenter": 126.9375,
        "meta_mean_anomaly": 46.2804,
        "meta_ephemeris_type": 0,
        "meta_classification_type": "U",
        "meta_norad_cat_id": 35834,
        "meta_element_set_no": 999,
        "meta_rev_at_epoch": 66107,
        "meta_bstar": 0.00011772733,
        "meta_mean_motion_dot": 2.07e-06,
        "meta_mean_motion_ddot": 0,
        "tle_line1": "1 35834U 93036ATG 25335.70777399  .00000207  00000+0  11773-3 0  9991",
        "tle_line2": "2 35834  73.9309 324.1737 0109042 126.9375  46.2804 14.12964835661079"
      },
      "geometry": {
        "type": "Point",
        "coordinates": [
          -37.403678928239195,
          4.800096529285668
        ]
      }
    },
    {
      "type": "Feature",
      "properties": {
        "norad_id": 35835,
        "name": "COSMOS 2251 DEB",
        "group": "cosmos-2251-debris",
        "lat": -54.21617680402778,
        "lon": 127.54089878743157,
        "alt_km": 1168.5158394611708,
        "timestamp": "2025-12-03T08:58:46.399738+00:00",
        "meta_object_name": "COSMOS 2251 DEB",
        "meta_object_id": "1993-036ATH",
        "meta_epoch": "2025-11-23T15:11:23.439552",
        "meta_mean_motion": 13.82767918,
        "meta_eccentricity": 0.02888493,
        "meta_inclination": 74.0623,
        "meta_ra_of_asc_node": 300.5555,
        "meta_arg_of_pericenter": 86.7647,
        "meta_mean_anomaly": 276.6477,
        "meta_ephemeris_type": 0,
        "meta_classification_type": "U",
        "meta_norad_cat_id": 35835,
        "meta_element_set_no": 999,
        "meta_rev_at_epoch": 61435,
        "meta_bstar": 0.00097699609,
        "meta_mean_motion_dot": 1.444e-05,
        "meta_mean_motion_ddot": 0,
        "tle_line1": "1 35835U 93036ATH 25327.63291018  .00001444  00000+0  97700-3 0  9992",
        "tle_line2": "2 35835  74.0623 300.5555 0288849  86.7647 276.6477 13.82767918614358"
      },
      "geometry": {
        "type": "Point",
        "coordinates": [
          127.54089878743157,
          -54.21617680402778
        ]
      }
    },
    {
      "type": "Feature",
      "properties": {
        "norad_id": 35836,
        "name": "COSMOS 2251 DEB",
        "group": "cosmos-2251-debris",
        "lat": 11.577069375557603,
        "lon": -165.51659745286005,
        "alt_km": 669.2080288183079,
        "timestamp": "2025-12-03T08:58:46.399748+00:00",
        "meta_object_name": "COSMOS 2251 DEB",
        "meta_object_id": "1993-036ATJ",
        "meta_epoch": "2025-12-02T08:26:07.027008",
        "meta_mean_motion": 14.70615264,
        "meta_eccentricity": 0.00250606,
        "meta_inclination": 74.032,
        "meta_ra_of_asc_node": 193.1051,
        "meta_arg_of_pericenter": 253.0154,
        "meta_mean_anomaly": 106.8271,
        "meta_ephemeris_type": 0,
        "meta_classification_type": "U",
        "meta_norad_cat_id": 35836,
        "meta_element_set_no": 999,
        "meta_rev_at_epoch": 63367,
        "meta_bstar": 0.0018954257,
        "meta_mean_motion_dot": 0.00011572,
        "meta_mean_motion_ddot": 0,
        "tle_line1": "1 35836U 93036ATJ 25336.35147022  .00011572  00000+0  18954-2 0  9993",
        "tle_line2": "2 35836  74.0320 193.1051 0025060 253.0154 106.8271 14.70615264633672"
      },
      "geometry": {
        "type": "Point",
        "coordinates": [
          -165.51659745286005,
          11.577069375557603
        ]
      }
    },
    {
      "type": "Feature",
      "properties": {
        "norad_id": 35837,
        "name": "COSMOS 2251 DEB",
        "group": "cosmos-2251-debris",
        "lat": -43.238707232952365,
        "lon": -152.74000829864937,
        "alt_km": 1335.9896034922358,
        "timestamp": "2025-12-03T08:58:46.399758+00:00",
        "meta_object_name": "COSMOS 2251 DEB",
        "meta_object_id": "1993-036ATK",
        "meta_epoch": "2025-12-01T23:51:57.289248",
        "meta_mean_motion": 13.6337538,
        "meta_eccentricity": 0.04221684,
        "meta_inclination": 73.722,
        "meta_ra_of_asc_node": 225.5014,
        "meta_arg_of_pericenter": 147.9905,
        "meta_mean_anomaly": 236.1342,
        "meta_ephemeris_type": 0,
        "meta_classification_type": "U",
        "meta_norad_cat_id": 35837,
        "meta_element_set_no": 999,
        "meta_rev_at_epoch": 57830,
        "meta_bstar": 0.0015598764,
        "meta_mean_motion_dot": 2.227e-05,
        "meta_mean_motion_ddot": 0,
        "tle_line1": "1 35837U 93036ATK 25335.99441307  .00002227  00000+0  15599-2 0  9995",
        "tle_line2": "2 35837  73.7220 225.5014 0422168 147.9905 236.1342 13.63375380578309"
      },
      "geometry": {
        "type": "Point",
        "coordinates": [
          -152.74000829864937,
          -43.238707232952365
        ]
      }
    },
    {
      "type": "Feature",
      "properties": {
        "norad_id": 35839,
        "name": "COSMOS 2251 DEB",
        "group": "cosmos-2251-debris",
        "lat": -33.49296833823315,
        "lon": 174.59768918946713,
        "alt_km": 438.3807999438959,
        "timestamp": "2025-12-03T08:58:46.399768+00:00",
        "meta_object_name": "COSMOS 2251 DEB",
        "meta_object_id": "1993-036ATM",
        "meta_epoch": "2025-12-02T18:04:00.304320",
        "meta_mean_motion": 15.45026888,
        "meta_eccentricity": 0.0004061,
        "meta_inclination": 74.215,
        "meta_ra_of_asc_node": 345.1466,
        "meta_arg_of_pericenter": 349.3631,
        "meta_mean_anomaly": 10.7494,
        "meta_ephemeris_type": 0,
        "meta_classification_type": "U",
        "meta_norad_cat_id": 35839,
        "meta_element_set_no": 999,
        "meta_rev_at_epoch": 88413,
        "meta_bstar": 0.0039662,
        "meta_mean_motion_dot": 0.00191992,
        "meta_mean_motion_ddot": 0,
        "tle_line1": "1 35839U 93036ATM 25336.75278130  .00191992  00000+0  39662-2 0  9999",
        "tle_line2": "2 35839  74.2150 345.1466 0004061 349.3631  10.7494 15.45026888884134"
      },
      "geometry": {
        "type": "Point",
        "coordinates": [
          174.59768918946713,
          -33.49296833823315
        ]
      }
    },
    {
      "type": "Feature",
      "properties": {
        "norad_id": 35840,
        "name": "COSMOS 2251 DEB",
        "group": "cosmos-2251-debris",
        "lat": 43.14219744338547,
        "lon": -20.13496672679107,
        "alt_km": 713.0490852215389,
        "timestamp": "2025-12-03T08:58:46.399778+00:00",
        "meta_object_name": "COSMOS 2251 DEB",
        "meta_object_id": "1993-036ATN",
        "meta_epoch": "2025-11-30T06:53:03.692256",
        "meta_mean_motion": 14.3763162,
        "meta_eccentricity": 0.01161544,
        "meta_inclination": 73.9309,
        "meta_ra_of_asc_node": 181.2553,
        "meta_arg_of_pericenter": 86.7922,
        "meta_mean_anomaly": 274.6513,
        "meta_ephemeris_type": 0,
        "meta_classification_type": "U",
        "meta_norad_cat_id": 35840,
        "meta_element_set_no": 999,
        "meta_rev_at_epoch": 85112,
        "meta_bstar": 0.0016678167,
        "meta_mean_motion_dot": 5.39e-05,
        "meta_mean_motion_ddot": 0,
        "tle_line1": "1 35840U 93036ATN 25334.28684829  .00005390  00000+0  16678-2 0  9991",
        "tle_line2": "2 35840  73.9309 181.2553 0116154  86.7922 274.6513 14.37631620851128"
      },
      "geometry": {
        "type": "Point",
        "coordinates": [
          -20.13496672679107,
          43.14219744338547
        ]
      }
    }
  ]
}